STAR ONE D2             
1 49055U 21069A   26169.80975734  .00000000  00000+0  00000+0 0  9996
2 49055   0.0153 340.0202 0002032 132.6885  15.7458  1.00270132 17964
EUTELSAT QUANTUM        
1 49056U 21069B   26169.76238150  .00000120  00000+0  00000+0 0  9999
2 49056   0.0145  22.6393 0002111  63.8054 142.7031  1.00272154 17943
ZHONGXING-2E            
1 49062U 21071A   26170.95509394 -.00000297  00000+0  00000+0 0  9999
2 49062   0.0299 211.6390 0001644 280.2302 218.2013  1.00273139 18065
TJS-7                   
1 49115U 21077A   26170.59628373 -.00000139  00000+0  00000+0 0  9998
2 49115   0.3481 265.2992 0008581 126.0442 351.7261  1.00331431  9576
CHINASAT 9B             
1 49125U 21080A   26170.04141861 -.00000318  00000+0  00000+0 0  9994
2 49125   0.0393 263.0538 0001548 212.4222 268.0821  1.00267643 17664
SHIJIAN-21 (SJ-21)      
1 49330U 21094A   26170.96426413 -.00000354  00000+0  00000+0 0  9997
2 49330   5.1205  61.1704 0049673 168.2648 153.9064  1.00269516  5381
SES-17                  
1 49332U 21095A   26169.59643572 -.00000278  00000+0  00000+0 0  9999
2 49332   0.0267  40.8266 0000811  45.0665 328.5524  1.00269036 17868
SYRACUSE 4A             
1 49333U 21095B   26170.26038110  .00000129  00000+0  00000+0 0  9996
2 49333   0.0178  11.5381 0001635  69.1185 326.0593  1.00268750 17964
QZS-1R (MICHIBIKI-1R)   
1 49336U 21096A   26170.63258758 -.00000290  00000+0  00000+0 0  9993
2 49336  37.4674  79.5460 0754800 271.8525 278.0167  1.00254705 17039
ZHONGXING-1D            
1 49505U 21114A   26170.91877014 -.00000342  00000+0  00000+0 0  9993
2 49505   0.0089 167.4208 0000713  48.5786 153.0354  1.00267567 16843
STPSAT-6                
1 49817U 21118A   26170.65700536 -.00000051  00000+0  00000+0 0  9995
2 49817   0.3283  85.3538 0001197 254.7941  52.6044  1.00269485 16596
EXPRESS AMU-7           
1 50001U 21123A   26170.92171682 -.00000248  00000+0  00000+0 0  9990
2 50001   0.0161 314.4408 0000352   2.5766  67.9406  1.00272019 16568
EXPRESS AMU-3           
1 50002U 21123B   26170.96922372  .00000000  00000+0  00000+0 0  9990
2 50002   0.0233 324.1156 0000236 331.6828  64.1991  1.00270329  7057
TIANLIAN 2-02           
1 50005U 21124A   26170.92683017 -.00000020  00000+0  00000+0 0  9993
2 50005   0.8097  86.0655 0001397 196.6406 130.0542  1.00271134 16649
TURKSAT 5B              
1 50212U 21126A   26170.11708522  .00000140  00000+0  00000+0 0  9997
2 50212   0.0673 343.7991 0003234  12.4246 355.2631  1.00271147 16314
INMARSAT 6-F1           
1 50319U 21128A   26169.84022277 -.00000178  00000+0  00000+0 0  9993
2 50319   0.0186 327.5438 0000303 244.7765  80.9907  1.00270212 16272
SHIYAN-12 01 (SY-12 01) 
1 50321U 21129A   26170.75340309  .00000089  00000+0  00000+0 0  9998
2 50321   3.6821  79.8763 0003241 287.8280 229.4495  1.00040512 16520
SHIYAN-12 02 (SY-12 02) 
1 50322U 21129B   26170.74364242 -.00000283  00000+0  00000+0 0  9997
2 50322   3.6816  79.8816 0002772  59.0435 127.6608  1.00488857 16526
TJS-9                   
1 50574U 21135A   26170.92015682 -.00000304  00000+0  00000+0 0  9998
2 50574   0.0361 238.3857 0003607 173.3251 324.8860  1.00273662 16451
USA 324                 
1 51280U 22006A   26157.08795008 -.00000058  00000+0  00000+0 0  9996
2 51280   0.7690  83.2777 0002840 165.6787 110.1567  1.00289779 16021
GOES 18                 
1 51850U 22021A   26170.79445240  .00000091  00000+0  00000+0 0  9995
2 51850   0.0365 172.6511 0000394 326.3071 278.0456  1.00271801  6611
ZHONGXING-6D            
1 52255U 22038A   26170.90814469  .00000000  00000+0  00000+0 0  9999
2 52255   0.0126 320.9317 0000595 140.1454 258.9296  1.00268933 15440
NILESAT 301             
1 52817U 22061A   26170.85322422 -.00000064  00000+0  00000+0 0  9997
2 52817   0.0501  19.2034 0004659  38.1692 150.8532  1.00271078 14761
CMS-02 (GSAT-24)        
1 52903U 22067A   26170.71414359 -.00000171  00000+0  00000+0 0  9994
2 52903   0.0510 254.4569 0001799 112.1793 241.3997  1.00271966 14633
MEASAT 3D               
1 52904U 22067B   26170.85650295 -.00000247  00000+0  00000+0 0  9995
2 52904   0.0267 349.5815 0001341  27.0754 291.2582  1.00271656 14671
SES-22                  
1 52933U 22071A   26170.72285346  .00000099  00000+0  00000+0 0  9993
2 52933   0.0156  11.2094 0001366  65.1144 312.8292  1.00272377  7542
WFOV (USA 332)          
1 52940U 22073A   26170.77399896 -.00000369  00000+0  00000+0 0  9995
2 52940   3.7185  78.4974 0002050 255.0556 332.3394  1.00273900 14396
TIANLIAN 2-03           
1 53100U 22078A   26170.75244921  .00000066  00000+0  00000+0 0  9998
2 53100   0.6774  77.0845 0001384 332.1489 140.1988  1.00271273 14573
SBIRS GEO-6 (USA 336)   
1 53355U 22092A   26170.84918838 -.00000298  00000+0  00000+0 0  9999
2 53355   3.2525 317.5522 0001841 121.0423 274.1830  1.00271021 14264
EUTELSAT KONNECT VHTS   
1 53765U 22110A   26170.85294645  .00000011  00000+0  00000+0 0  9991
2 53765   0.0634  99.6675 0002376 350.7532 127.3974  1.00268826  6862
ZHONGXING-1E            
1 53813U 22112A   26170.76652069 -.00000155  00000+0  00000+0 0  9995
2 53813   0.0440 188.6696 0000669 128.5084 308.1629  1.00272200 13875
